[
    {
        "Altitude(m)": 564598.5898157547,
        "Argument of Periapsis(deg)": 0.019868973332140504,
        "Eccentricity": 0.0,
        "Inclination(deg)": 53.0,
        "Latitude(deg)": -35.31639363531897,
        "Longitude(deg)": 170.549803944624,
        "Mean Anomaly(deg)": -46.08882139726719,
        "RAAN(deg)": 304.97043010558406,
        "Satellite Name": "Starlink Shell 1 1359",
        "Satellite Number": 1359,
        "Semi-Major Axis(m)": 6931778.249405717,
        "Time(s)": 570
    },
    {
        "Altitude(m)": 564425.9147643496,
        "Argument of Periapsis(deg)": 0.02021755181165174,
        "Eccentricity": 0.0,
        "Inclination(deg)": 53.0,
        "Latitude(deg)": -34.8903832425345,
        "Longitude(deg)": 171.06870968856174,
        "Mean Anomaly(deg)": -45.46199019371049,
        "RAAN(deg)": 304.9699113355066,
        "Satellite Name": "Starlink Shell 1 1359",
        "Satellite Number": 1359,
        "Semi-Major Axis(m)": 6931778.249405717,
        "Time(s)": 580
    },
    {
        "Altitude(m)": 564252.6688260868,
        "Argument of Periapsis(deg)": 0.020566130291162974,
        "Eccentricity": 0.0,
        "Inclination(deg)": 53.0,
        "Latitude(deg)": -34.4617762882567,
        "Longitude(deg)": 171.58186520726477,
        "Mean Anomaly(deg)": -44.83515899015384,
        "RAAN(deg)": 304.96939256542913,
        "Satellite Name": "Starlink Shell 1 1359",
        "Satellite Number": 1359,
        "Semi-Major Axis(m)": 6931778.249405717,
        "Time(s)": 590
    },
    {
        "Altitude(m)": 564078.9182594578,
        "Argument of Periapsis(deg)": 0.020914708770674213,
        "Eccentricity": 0.0,
        "Inclination(deg)": 53.0,
        "Latitude(deg)": -34.03063827898416,
        "Longitude(deg)": 172.0893862867547,
        "Mean Anomaly(deg)": -44.208327786597096,
        "RAAN(deg)": 304.96887379535167,
        "Satellite Name": "Starlink Shell 1 1359",
        "Satellite Number": 1359,
        "Semi-Major Axis(m)": 6931778.249405717,
        "Time(s)": 600
    },
    {
        "Altitude(m)": 563904.7294027932,
        "Argument of Periapsis(deg)": 0.021263287250185448,
        "Eccentricity": 0.0,
        "Inclination(deg)": 53.0,
        "Latitude(deg)": -33.59703324744736,
        "Longitude(deg)": 172.59138785848705,
        "Mean Anomaly(deg)": -43.581496583040405,
        "RAAN(deg)": 304.96835502527415,
        "Satellite Name": "Starlink Shell 1 1359",
        "Satellite Number": 1359,
        "Semi-Major Axis(m)": 6931778.249405717,
        "Time(s)": 610
    },
    {
        "Altitude(m)": 563730.1686446093,
        "Argument of Periapsis(deg)": 0.021611865729696686,
        "Eccentricity": 0.0,
        "Inclination(deg)": 53.0,
        "Latitude(deg)": -33.16102378455732,
        "Longitude(deg)": 173.08798443303291,
        "Mean Anomaly(deg)": -42.95466537948371,
        "RAAN(deg)": 304.9678362551967,
        "Satellite Name": "Starlink Shell 1 1359",
        "Satellite Number": 1359,
        "Semi-Major Axis(m)": 6931778.249405717,
        "Time(s)": 620
    },
    {
        "Altitude(m)": 563555.302393937,
        "Argument of Periapsis(deg)": 0.02196044420920792,
        "Eccentricity": 0.0,
        "Inclination(deg)": 53.0,
        "Latitude(deg)": -32.722671071603,
        "Longitude(deg)": 173.5792888604491,
        "Mean Anomaly(deg)": -42.327834175927016,
        "RAAN(deg)": 304.9673174851192,
        "Satellite Name": "Starlink Shell 1 1359",
        "Satellite Number": 1359,
        "Semi-Major Axis(m)": 6931778.249405717,
        "Time(s)": 630
    },
    {
        "Altitude(m)": 563380.1970506097,
        "Argument of Periapsis(deg)": 0.02230902268871916,
        "Eccentricity": 0.0,
        "Inclination(deg)": 53.0,
        "Latitude(deg)": -32.28203491260816,
        "Longitude(deg)": 174.06541361928763,
        "Mean Anomaly(deg)": -41.70100297237032,
        "RAAN(deg)": 304.96679871504176,
        "Satellite Name": "Starlink Shell 1 1359",
        "Satellite Number": 1359,
        "Semi-Major Axis(m)": 6931778.249405717,
        "Time(s)": 640
    },
    {
        "Altitude(m)": 563204.9189755745,
        "Argument of Periapsis(deg)": 0.022657601168230398,
        "Eccentricity": 0.0,
        "Inclination(deg)": 53.0,
        "Latitude(deg)": -31.839173766753177,
        "Longitude(deg)": 174.54646959087466,
        "Mean Anomaly(deg)": -41.074171768813514,
        "RAAN(deg)": 304.9662799449643,
        "Satellite Name": "Starlink Shell 1 1359",
        "Satellite Number": 1359,
        "Semi-Major Axis(m)": 6931778.249405717,
        "Time(s)": 650
    },
    {
        "Altitude(m)": 563029.5344611628,
        "Argument of Periapsis(deg)": 0.023006179647741636,
        "Eccentricity": 0.0,
        "Inclination(deg)": 53.0,
        "Latitude(deg)": -31.394144780792026,
        "Longitude(deg)": 175.02256652084836,
        "Mean Anomaly(deg)": -40.44734056525682,
        "RAAN(deg)": 304.9657611748868,
        "Satellite Name": "Starlink Shell 1 1359",
        "Satellite Number": 1359,
        "Semi-Major Axis(m)": 6931778.249405717,
        "Time(s)": 660
    },
    {
        "Altitude(m)": 562854.1097014388,
        "Argument of Periapsis(deg)": 0.023354758127252868,
        "Eccentricity": 0.0,
        "Inclination(deg)": 53.0,
        "Latitude(deg)": -30.94700382138849,
        "Longitude(deg)": 175.49381348656783,
        "Mean Anomaly(deg)": -39.820509361700076,
        "RAAN(deg)": 304.9652424048093,
        "Satellite Name": "Starlink Shell 1 1359",
        "Satellite Number": 1359,
        "Semi-Major Axis(m)": 6931778.249405717,
        "Time(s)": 670
    },
    {
        "Altitude(m)": 562678.7107625336,
        "Argument of Periapsis(deg)": 0.023703336606764106,
        "Eccentricity": 0.0,
        "Inclination(deg)": 53.0,
        "Latitude(deg)": -30.497805507308957,
        "Longitude(deg)": 175.96031785712125,
        "Mean Anomaly(deg)": -39.19367815814333,
        "RAAN(deg)": 304.9647236347319,
        "Satellite Name": "Starlink Shell 1 1359",
        "Satellite Number": 1359,
        "Semi-Major Axis(m)": 6931778.249405717,
        "Time(s)": 680
    },
    {
        "Altitude(m)": 562503.403553036,
        "Argument of Periapsis(deg)": 0.024051915086275345,
        "Eccentricity": 0.0,
        "Inclination(deg)": 53.0,
        "Latitude(deg)": -30.046603241417234,
        "Longitude(deg)": 176.4221857713023,
        "Mean Anomaly(deg)": -38.56684695458664,
        "RAAN(deg)": 304.9642048646544,
        "Satellite Name": "Starlink Shell 1 1359",
        "Satellite Number": 1359,
        "Semi-Major Axis(m)": 6931778.249405717,
        "Time(s)": 690
    },
    {
        "Altitude(m)": 562328.2537944795,
        "Argument of Periapsis(deg)": 0.024400493565786583,
        "Eccentricity": 0.0,
        "Inclination(deg)": 53.0,
        "Latitude(deg)": -29.5934492424202,
        "Longitude(deg)": 176.87952262032164,
        "Mean Anomaly(deg)": -37.94001575102999,
        "RAAN(deg)": 304.96368609457693,
        "Satellite Name": "Starlink Shell 1 1359",
        "Satellite Number": 1359,
        "Semi-Major Axis(m)": 6931778.249405717,
        "Time(s)": 700
    },
    {
        "Altitude(m)": 562153.3269918653,
        "Argument of Periapsis(deg)": 0.024749072045297815,
        "Eccentricity": 0.0,
        "Inclination(deg)": 53.0,
        "Latitude(deg)": -29.13839457631583,
        "Longitude(deg)": 177.33243202204036,
        "Mean Anomaly(deg)": -37.31318454747324,
        "RAAN(deg)": 304.96316732449947,
        "Satellite Name": "Starlink Shell 1 1359",
        "Satellite Number": 1359,
        "Semi-Major Axis(m)": 6931778.249405717,
        "Time(s)": 710
    },
    {
        "Altitude(m)": 561978.6884042965,
        "Argument of Periapsis(deg)": 0.025097650524809053,
        "Eccentricity": 0.0,
        "Inclination(deg)": 53.0,
        "Latitude(deg)": -28.681489187509634,
        "Longitude(deg)": 177.78101631215142,
        "Mean Anomaly(deg)": -36.686353343916494,
        "RAAN(deg)": 304.962648554422,
        "Satellite Name": "Starlink Shell 1 1359",
        "Satellite Number": 1359,
        "Semi-Major Axis(m)": 6931778.249405717,
        "Time(s)": 720
    },
    {
        "Altitude(m)": 561804.4030157159,
        "Argument of Periapsis(deg)": 0.02544622900432029,
        "Eccentricity": 0.0,
        "Inclination(deg)": 53.0,
        "Latitude(deg)": -28.22278192956225,
        "Longitude(deg)": 178.2253770391287,
        "Mean Anomaly(deg)": -36.0595221403598,
        "RAAN(deg)": 304.9621297843445,
        "Satellite Name": "Starlink Shell 1 1359",
        "Satellite Number": 1359,
        "Semi-Major Axis(m)": 6931778.249405717,
        "Time(s)": 730
    },
    {
        "Altitude(m)": 561630.5355057535,
        "Argument of Periapsis(deg)": 0.02579480748383153,
        "Eccentricity": 0.0,
        "Inclination(deg)": 53.0,
        "Latitude(deg)": -27.762320595534895,
        "Longitude(deg)": 178.6656139497885,
        "Mean Anomaly(deg)": -35.432690936803155,
        "RAAN(deg)": 304.961611014267,
        "Satellite Name": "Starlink Shell 1 1359",
        "Satellite Number": 1359,
        "Semi-Major Axis(m)": 6931778.249405717,
        "Time(s)": 740
    },
    {
        "Altitude(m)": 561457.1502207232,
        "Argument of Periapsis(deg)": 0.026143385963342765,
        "Eccentricity": 0.0,
        "Inclination(deg)": 53.0,
        "Latitude(deg)": -27.30015194791268,
        "Longitude(deg)": 179.1018254909357,
        "Mean Anomaly(deg)": -34.80585973324631,
        "RAAN(deg)": 304.96109224418956,
        "Satellite Name": "Starlink Shell 1 1359",
        "Satellite Number": 1359,
        "Semi-Major Axis(m)": 6931778.249405717,
        "Time(s)": 750
    }
]